LEMUR-1                 
1 40044U 14033AL  26188.36969977  .00001471  00000+0  17399-3 0  9998
2 40044  97.7901 337.7295 0048430  13.6614 346.5900 14.85321522648461
LEMUR-2-GREENBERG       
1 42837U 17042N   26188.47056609  .00011344  00000+0  36947-3 0  9994
2 42837  97.3833   9.0113 0007168 292.6231  67.4252 15.31983818491490
LEMUR-2-ANDIS           
1 42838U 17042P   26187.73544481  .00017878  00000+0  51664-3 0  9994
2 42838  97.3685   8.5318 0007107 293.7973  66.2525 15.35678970491455
LEMUR-2-MONSON          
1 42839U 17042Q   26188.45814130  .00010309  00000+0  37280-3 0  9996
2 42839  97.4095   8.9398 0005147 281.0533  79.0128 15.28615242491263
LEMUR-2-FURIAUS         
1 42840U 17042R   26188.28225153  .00012226  00000+0  41096-3 0  9990
2 42840  97.3782   6.7334 0006636   0.8117 359.3134 15.30948738491287
LEMUR-2-PETERG          
1 42841U 17042S   26188.44860667  .00016045  00000+0  47712-3 0  9998
2 42841  97.4001  13.5239 0002863 258.0828 102.0094 15.34821414491549
LEMUR-2-DEMBITZ         
1 42842U 17042T   26187.45219817  .00017223  00000+0  57818-3 0  9991
2 42842  97.3834   8.9463 0005291 313.9812  46.0993 15.30918269491290
LEMUR-2-ZACHARY         
1 42845U 17042W   26188.51079750  .00034993  00000+0  57787-3 0  9990
2 42845  97.3592  20.6045 0002330 286.9112  73.1885 15.52177976492359
LEMUR-2-AMANDA-SVANTE   
1 48269U 21034B   26187.19863294  .00035315  00000+0  10207-2 0  9993
2 48269  97.5745 266.0000 0004036 164.2126 195.9244 15.35552160283973
LEMUR-2-SPECIAL-K       
1 48273U 21034F   26187.23722578  .00241712  00000+0  18453-2 0  9993
2 48273  97.5636 275.5626 0005773 220.9079 139.1750 15.71456484284674
LEMUR-2-EMBRIONOVIS     
1 56970U 23084AQ  26188.37340875  .00009790  00000+0  26323-3 0  9999
2 56970  97.6318 333.3577 0007751 236.9428 123.1072 15.38085565170783
LEMUR-2-DEVERILL-M-T    
1 57391U 23100F   26188.04906124  .00021057  00000+0  51594-3 0  9993
2 57391  99.4457 232.5577 0004826 332.4144  27.6839 15.40798333164309
LEMUR-2-BASS            
1 58259U 23174D   26188.50300220  .00012471  00000+0  27695-3 0  9999
2 58259  97.3840 273.5081 0007978 101.1477 259.0668 15.43808592148497
LEMUR-2-JK0903EM1407    
1 58336U 23174CJ  26188.19316044  .00020526  00000+0  33311-3 0  9993
2 58336  97.3914 279.2419 0004296  58.9562 301.2112 15.52763120148836
LEMUR-2-MJR092620       
1 58340U 23174CN  26188.49244324  .00013310  00000+0  27764-3 0  9990
2 58340  97.3968 278.9055 0006034  55.9255 304.2566 15.45659820148783
LEMUR-2-NIMBUS2000      
1 58899U 24022A   26188.02174235  .00016668  00000+0  40709-3 0  9997
2 58899  97.4093  38.2803 0009530  55.1826 305.0316 15.40867104135329
